start=new Date('2021-09-04T00:00:00.000Z').valueOf();
sats=[{"OBJECT_TYPE":"PAYLOAD","COUNTRY_CODE":"US","LAUNCH_DATE":"2020-02-17","REV_AT_EPOCH":"8575","MEAN_MOTION_DOT":"0.00000731","EPOCH":"2021-09-03T15:22:09.756480","GP_ID":"184047715","DECAY_DATE":null,"APOAPSIS":"547.875","OBJECT_ID":"2020-012G","ELEMENT_SET_NO":"999","ECCENTRICITY":"0.00009890","NORAD_CAT_ID":"45184","REF_FRAME":"TEME","MEAN_ANOMALY":"310.2082","BSTAR":"0.00006792600000","OBJECT_NAME":"STARLINK-1205","ARG_OF_PERICENTER":"49.8993","TLE_LINE1":"1 45184U 20012G   21246.64039070  .00000731  00000-0  67926-4 0  9996","CLASSIFICATION_TYPE":"U","PERIOD":"95.592","EPHEMERIS_TYPE":"0","FILE":"3108332","TLE_LINE2":"2 45184  53.0530 225.0052 0000989  49.8993 310.2082 15.06407665 85755","MEAN_MOTION_DDOT":"0.0000000000000","PERIAPSIS":"546.505","CENTER_NAME":"EARTH","MEAN_ELEMENT_THEORY":"SGP4","MEAN_MOTION":"15.06407665","INCLINATION":"53.0530","RCS_SIZE":"LARGE","SEMIMAJOR_AXIS":"6925.325","RA_OF_ASC_NODE":"225.0052","SITE":"AFETR","TIME_SYSTEM":"UTC"},{"BSTAR":"0.00006045600000","OBJECT_NAME":"STARLINK-1216","ARG_OF_PERICENTER":"29.6684","OBJECT_ID":"2020-012H","ELEMENT_SET_NO":"999","MEAN_ANOMALY":"330.4359","NORAD_CAT_ID":"45185","ECCENTRICITY":"0.00009680","REF_FRAME":"TEME","GP_ID":"184048463","DECAY_DATE":null,"APOAPSIS":"547.898","OBJECT_TYPE":"PAYLOAD","COUNTRY_CODE":"US","MEAN_MOTION_DOT":"0.00000619","EPOCH":"2021-09-03T17:00:23.243904","REV_AT_EPOCH":"8639","LAUNCH_DATE":"2020-02-17","SEMIMAJOR_AXIS":"6925.362","RA_OF_ASC_NODE":"244.6962","TIME_SYSTEM":"UTC","SITE":"AFETR","INCLINATION":"53.0535","MEAN_MOTION":"15.06395571","RCS_SIZE":"LARGE","MEAN_MOTION_DDOT":"0.0000000000000","CENTER_NAME":"EARTH","PERIAPSIS":"546.557","MEAN_ELEMENT_THEORY":"SGP4","TLE_LINE1":"1 45185U 20012H   21246.70860236  .00000619  00000-0  60456-4 0  9996","FILE":"3108332","TLE_LINE2":"2 45185  53.0535 244.6962 0000968  29.6684 330.4359 15.06395571 86392","PERIOD":"95.592","CLASSIFICATION_TYPE":"U","EPHEMERIS_TYPE":"0"},{"MEAN_ANOMALY":"325.6689","ECCENTRICITY":"0.00008810","NORAD_CAT_ID":"45186","REF_FRAME":"TEME","ELEMENT_SET_NO":"999","OBJECT_ID":"2020-012J","ARG_OF_PERICENTER":"34.4357","OBJECT_NAME":"STARLINK-1224","BSTAR":"0.00007934600000","MEAN_MOTION_DOT":"0.00000901","EPOCH":"2021-09-03T09:23:53.424384","REV_AT_EPOCH":"8575","LAUNCH_DATE":"2020-02-17","OBJECT_TYPE":"PAYLOAD","COUNTRY_CODE":"US","APOAPSIS":"547.821","GP_ID":"184023321","DECAY_DATE":null,"RCS_SIZE":"LARGE","INCLINATION":"53.0537","MEAN_MOTION":"15.06400749","TIME_SYSTEM":"UTC","SITE":"AFETR","SEMIMAJOR_AXIS":"6925.346","RA_OF_ASC_NODE":"246.1182","FILE":"3108124","TLE_LINE2":"2 45186  53.0537 246.1182 0000881  34.4357 325.6689 15.06400749 85756","CLASSIFICATION_TYPE":"U","PERIOD":"95.592","EPHEMERIS_TYPE":"0","TLE_LINE1":"1 45186U 20012J   21246.39159056  .00000901  00000-0  79346-4 0  9995","MEAN_ELEMENT_THEORY":"SGP4","MEAN_MOTION_DDOT":"0.0000000000000","PERIAPSIS":"546.601","CENTER_NAME":"EARTH"},{"DECAY_DATE":null,"GP_ID":"184014767","APOAPSIS":"547.783","COUNTRY_CODE":"US","OBJECT_TYPE":"PAYLOAD","EPOCH":"2021-09-03T09:29:13.659072","MEAN_MOTION_DOT":"0.00000475","LAUNCH_DATE":"2020-02-17","REV_AT_EPOCH":"8639","BSTAR":"0.00005077500000","OBJECT_NAME":"STARLINK-1225","ARG_OF_PERICENTER":"52.6448","ELEMENT_SET_NO":"999","OBJECT_ID":"2020-012K","MEAN_ANOMALY":"307.4610","REF_FRAME":"TEME","NORAD_CAT_ID":"45187","ECCENTRICITY":"0.00007580","PERIAPSIS":"546.733","CENTER_NAME":"EARTH","MEAN_MOTION_DDOT":"0.0000000000000","MEAN_ELEMENT_THEORY":"SGP4","TLE_LINE1":"1 45187U 20012K   21246.39529698  .00000475  00000-0  50775-4 0  9990","TLE_LINE2":"2 45187  53.0528 246.1080 0000758  52.6448 307.4610 15.06385469 86394","FILE":"3107903","EPHEMERIS_TYPE":"0","PERIOD":"95.593","CLASSIFICATION_TYPE":"U","RA_OF_ASC_NODE":"246.1080","SEMIMAJOR_AXIS":"6925.393","TIME_SYSTEM":"UTC","SITE":"AFETR","INCLINATION":"53.0528","MEAN_MOTION":"15.06385469","RCS_SIZE":"LARGE"},{"SEMIMAJOR_AXIS":"6925.370","RA_OF_ASC_NODE":"205.0826","TIME_SYSTEM":"UTC","SITE":"AFETR","INCLINATION":"53.0544","MEAN_MOTION":"15.06392888","RCS_SIZE":"LARGE","MEAN_MOTION_DDOT":"0.0000000000000","CENTER_NAME":"EARTH","PERIAPSIS":"546.262","MEAN_ELEMENT_THEORY":"SGP4","TLE_LINE1":"1 45188U 20012L   21246.62381432 -.00000530  00000-0 -16687-4 0  9997","FILE":"3108332","TLE_LINE2":"2 45188  53.0544 205.0826 0001405  50.2762 309.8350 15.06392888 86949","PERIOD":"95.593","EPHEMERIS_TYPE":"0","CLASSIFICATION_TYPE":"U","BSTAR":"-0.00001668700000","OBJECT_NAME":"STARLINK-1228","ARG_OF_PERICENTER":"50.2762","ELEMENT_SET_NO":"999","OBJECT_ID":"2020-012L","MEAN_ANOMALY":"309.8350","ECCENTRICITY":"0.00014050","NORAD_CAT_ID":"45188","REF_FRAME":"TEME","GP_ID":"184047215","DECAY_DATE":null,"APOAPSIS":"548.208","OBJECT_TYPE":"PAYLOAD","COUNTRY_CODE":"US","MEAN_MOTION_DOT":"-0.00000530","EPOCH":"2021-09-03T14:58:17.557248","LAUNCH_DATE":"2020-02-17","REV_AT_EPOCH":"8694"},{"RCS_SIZE":"LARGE","INCLINATION":"53.0539","MEAN_MOTION":"15.06392066","TIME_SYSTEM":"UTC","SITE":"AFETR","SEMIMAJOR_AXIS":"6925.373","RA_OF_ASC_NODE":"246.0860","FILE":"3107903","TLE_LINE2":"2 45189  53.0539 246.0860 0000889  59.9500 300.1577 15.06392066 83623","PERIOD":"95.593","EPHEMERIS_TYPE":"0","CLASSIFICATION_TYPE":"U","TLE_LINE1":"1 45189U 20012M   21246.39898261  .00000418  00000-0  46963-4 0  9998","MEAN_ELEMENT_THEORY":"SGP4","MEAN_MOTION_DDOT":"0.0000000000000","CENTER_NAME":"EARTH","PERIAPSIS":"546.622","MEAN_ANOMALY":"300.1577","NORAD_CAT_ID":"45189","ECCENTRICITY":"0.00008890","REF_FRAME":"TEME","OBJECT_ID":"2020-012M","ELEMENT_SET_NO":"999","ARG_OF_PERICENTER":"59.9500","BSTAR":"0.00004696300000","OBJECT_NAME":"STARLINK-1230","MEAN_MOTION_DOT":"0.00000418","EPOCH":"2021-09-03T09:34:32.097504","REV_AT_EPOCH":"8362","LAUNCH_DATE":"2020-02-17","OBJECT_TYPE":"PAYLOAD","COUNTRY_CODE":"US","APOAPSIS":"547.854","GP_ID":"184013266","DECAY_DATE":null},{"BSTAR":"-0.00002946200000","OBJECT_NAME":"STARLINK-1234","ARG_OF_PERICENTER":"53.3996","ELEMENT_SET_NO":"999","OBJECT_ID":"2020-012N","MEAN_ANOMALY":"306.7126","ECCENTRICITY":"0.00014470","NORAD_CAT_ID":"45190","REF_FRAME":"TEME","GP_ID":"184048716","DECAY_DATE":null,"APOAPSIS":"548.230","OBJECT_TYPE":"PAYLOAD","COUNTRY_CODE":"US","MEAN_MOTION_DOT":"-0.00000720","EPOCH":"2021-09-03T14:47:40.807392","LAUNCH_DATE":"2020-02-17","REV_AT_EPOCH":"8689","SEMIMAJOR_AXIS":"6925.363","RA_OF_ASC_NODE":"205.1134","TIME_SYSTEM":"UTC","SITE":"AFETR","INCLINATION":"53.0540","MEAN_MOTION":"15.06395307","RCS_SIZE":"LARGE","MEAN_MOTION_DDOT":"0.0000000000000","CENTER_NAME":"EARTH","PERIAPSIS":"546.226","MEAN_ELEMENT_THEORY":"SGP4","TLE_LINE1":"1 45190U 20012N   21246.61644453 -.00000720  00000-0 -29462-4 0  9990","FILE":"3108332","TLE_LINE2":"2 45190  53.0540 205.1134 0001447  53.3996 306.7126 15.06395307 86890","PERIOD":"95.592","CLASSIFICATION_TYPE":"U","EPHEMERIS_TYPE":"0"},{"BSTAR":"0.00009343200000","OBJECT_NAME":"STARLINK-1236","ARG_OF_PERICENTER":"22.7974","OBJECT_ID":"2020-012P","ELEMENT_SET_NO":"999","ECCENTRICITY":"0.00006180","NORAD_CAT_ID":"45191","REF_FRAME":"TEME","MEAN_ANOMALY":"337.3043","GP_ID":"184047466","DECAY_DATE":null,"APOAPSIS":"547.636","OBJECT_TYPE":"PAYLOAD","COUNTRY_CODE":"US","LAUNCH_DATE":"2020-02-17","REV_AT_EPOCH":"8362","MEAN_MOTION_DOT":"0.00001111","EPOCH":"2021-09-03T11:20:40.047072","SEMIMAJOR_AXIS":"6925.343","RA_OF_ASC_NODE":"245.7616","SITE":"AFETR","TIME_SYSTEM":"UTC","MEAN_MOTION":"15.06401811","INCLINATION":"53.0545","RCS_SIZE":"LARGE","MEAN_MOTION_DDOT":"0.0000000000000","CENTER_NAME":"EARTH","PERIAPSIS":"546.780","MEAN_ELEMENT_THEORY":"SGP4","TLE_LINE1":"1 45191U 20012P   21246.47268573  .00001111  00000-0  93432-4 0  9991","CLASSIFICATION_TYPE":"U","PERIOD":"95.592","EPHEMERIS_TYPE":"0","FILE":"3108332","TLE_LINE2":"2 45191  53.0545 245.7616 0000618  22.7974 337.3043 15.06401811 83620"},{"ELEMENT_SET_NO":"999","OBJECT_ID":"2020-012Q","MEAN_ANOMALY":"341.8319","ECCENTRICITY":"0.00005980","NORAD_CAT_ID":"45192","REF_FRAME":"TEME","OBJECT_NAME":"STARLINK-1237","BSTAR":"-0.00006860300000","ARG_OF_PERICENTER":"18.2691","OBJECT_TYPE":"PAYLOAD","COUNTRY_CODE":"US","MEAN_MOTION_DOT":"-0.00001302","EPOCH":"2021-09-03T17:05:41.458560","LAUNCH_DATE":"2020-02-17","REV_AT_EPOCH":"8645","GP_ID":"184047716","DECAY_DATE":null,"APOAPSIS":"547.675","INCLINATION":"53.0547","MEAN_MOTION":"15.06384588","RCS_SIZE":"LARGE","SEMIMAJOR_AXIS":"6925.396","RA_OF_ASC_NODE":"244.6852","TIME_SYSTEM":"UTC","SITE":"AFETR","TLE_LINE1":"1 45192U 20012Q   21246.71228540 -.00001302  00000-0 -68603-4 0  9995","FILE":"3108332","TLE_LINE2":"2 45192  53.0547 244.6852 0000598  18.2691 341.8319 15.06384588 86457","PERIOD":"95.593","EPHEMERIS_TYPE":"0","CLASSIFICATION_TYPE":"U","MEAN_MOTION_DDOT":"0.0000000000000","CENTER_NAME":"EARTH","PERIAPSIS":"546.847","MEAN_ELEMENT_THEORY":"SGP4"},{"BSTAR":"-0.00005155000000","OBJECT_NAME":"STARLINK-1239","ARG_OF_PERICENTER":"54.1720","ELEMENT_SET_NO":"999","OBJECT_ID":"2020-012R","ECCENTRICITY":"0.00007560","NORAD_CAT_ID":"45193","REF_FRAME":"TEME","MEAN_ANOMALY":"305.9339","GP_ID":"184048464","DECAY_DATE":null,"APOAPSIS":"547.773","OBJECT_TYPE":"PAYLOAD","COUNTRY_CODE":"US","LAUNCH_DATE":"2020-02-17","REV_AT_EPOCH":"8639","MEAN_MOTION_DOT":"-0.00001049","EPOCH":"2021-09-03T16:49:46.041312","SEMIMAJOR_AXIS":"6925.384","RA_OF_ASC_NODE":"244.7297","SITE":"AFETR","TIME_SYSTEM":"UTC","MEAN_MOTION":"15.06388389","INCLINATION":"53.0535","RCS_SIZE":"LARGE","MEAN_MOTION_DDOT":"0.0000000000000","PERIAPSIS":"546.726","CENTER_NAME":"EARTH","MEAN_ELEMENT_THEORY":"SGP4","TLE_LINE1":"1 45193U 20012R   21246.70122733 -.00001049  00000-0 -51550-4 0  9993","PERIOD":"95.593","EPHEMERIS_TYPE":"0","CLASSIFICATION_TYPE":"U","FILE":"3108332","TLE_LINE2":"2 45193  53.0535 244.7297 0000756  54.1720 305.9339 15.06388389 86396"}];
